[{"OBJECT_NAME":"STARLINK-2021","OBJECT_ID":"2021-009BJ","EPOCH":"2026-03-09T21:25:11.703648","MEAN_MOTION":15.65170997,"ECCENTRICITY":0.00069123,"INCLINATION":53.0451,"RA_OF_ASC_NODE":334.9816,"ARG_OF_PERICENTER":125.4703,"MEAN_ANOMALY":234.6958,"EPHEMERIS_TYPE":0,"CLASSIFICATION_TYPE":"U","NORAD_CAT_ID":47604,"ELEMENT_SET_NO":999,"REV_AT_EPOCH":28147,"BSTAR":0.00097097942,"MEAN_MOTION_DOT":0.00098541,"MEAN_MOTION_DDOT":0},{"OBJECT_NAME":"STARLINK-36533","OBJECT_ID":"2026-020AC","EPOCH":"2026-03-09T16:00:06.953760","MEAN_MOTION":15.67305458,"ECCENTRICITY":0.0003498,"INCLINATION":42.9984,"RA_OF_ASC_NODE":142.2096,"ARG_OF_PERICENTER":341.2459,"MEAN_ANOMALY":18.8278,"EPHEMERIS_TYPE":0,"CLASSIFICATION_TYPE":"U","NORAD_CAT_ID":67643,"ELEMENT_SET_NO":999,"REV_AT_EPOCH":608,"BSTAR":-0.0046634327,"MEAN_MOTION_DOT":-0.00488163,"MEAN_MOTION_DDOT":0}]
